OBJECT_NAME,OBJECT_ID,EPOCH,MEAN_MOTION,ECCENTRICITY,INCLINATION,RA_OF_ASC_NODE,ARG_OF_PERICENTER,MEAN_ANOMALY,EPHEMERIS_TYPE,CLASSIFICATION_TYPE,NORAD_CAT_ID,ELEMENT_SET_NO,REV_AT_EPOCH,BSTAR,MEAN_MOTION_DOT,MEAN_MOTION_DDOT
STARLINK-30472,2023-146L,2026-07-17T14:00:10.327104,15.27573643,.0001205,43.0025,297.0641,278.3645,81.7070,0,U,57901,999,15590,.28244E-5,-.184E-5,0
STARLINK-30462,2023-146M,2026-07-17T08:23:32.796096,15.27577284,.0001513,43.0042,302.1620,274.6171,85.4508,0,U,57902,999,15684,.113E-4,.49E-6,0
STARLINK-30449,2023-146N,2026-07-17T17:07:46.086240,15.27580326,.0001245,43.0016,299.7265,263.9302,96.1408,0,U,57903,999,15588,.37857E-4,.78E-5,0
STARLINK-30466,2023-146P,2026-07-17T13:11:32.493696,15.27587323,.0001297,43.0018,301.0817,232.4202,127.6531,0,U,57904,999,15585,.74059E-4,.1777E-4,0
STARLINK-30428,2023-146R,2026-07-17T14:49:25.487040,15.27572583,.0001557,43.0032,300.7263,258.5733,101.4944,0,U,57906,999,15586,.75692E-5,-.54E-6,0
STARLINK-30482,2023-146S,2026-07-17T07:15:15.862752,15.27591190,.0001719,43.0030,302.6604,243.2056,116.8620,0,U,57907,999,15582,.97637E-4,.2426E-4,0
STARLINK-30464,2023-146T,2026-07-17T15:01:39.874080,15.27573383,.0001775,43.0045,304.1872,269.7116,90.3532,0,U,57908,999,15582,.13824E-4,.118E-5,0
STARLINK-30463,2023-146U,2026-07-17T16:51:19.868256,15.27578046,.0001282,43.0021,300.4981,263.3209,96.7497,0,U,57909,999,15587,.88291E-5,-.19E-6,0
STARLINK-30453,2023-146V,2026-07-17T14:53:50.072352,15.27576591,.0001485,43.0019,297.3484,262.8959,97.1724,0,U,57910,999,15590,.15858E-4,.174E-5,0
STARLINK-30478,2023-146W,2026-07-17T15:29:55.125888,15.27572826,.0001399,43.0028,300.0774,269.6550,90.4141,0,U,57911,999,15693,.30576E-4,.579E-5,0
STARLINK-30477,2023-146X,2026-07-17T15:28:46.767072,15.27577075,.00015,43.0021,296.6685,271.3067,88.7613,0,U,57912,999,15697,-.62382E-5,-.434E-5,0
STARLINK-30450,2023-147A,2026-07-17T15:03:58.057920,15.27577428,.0002127,43.0051,311.1161,308.2085,51.8575,0,U,57913,999,15647,.22482E-4,.356E-5,0
STARLINK-30483,2023-147B,2026-07-17T09:07:56.972064,15.27583151,.0001437,43.0024,167.2039,274.7380,85.3307,0,U,57914,999,15814,.10407E-3,.2603E-4,0
STARLINK-30454,2023-147C,2026-07-17T08:58:26.402016,15.27576125,.0001325,43.0024,312.6433,268.1696,91.9003,0,U,57915,999,15643,-.34759E-5,-.358E-5,0
STARLINK-30501,2023-147E,2026-07-17T09:02:08.164032,15.27556531,.0001462,43.0020,312.6582,190.5686,169.5135,0,U,57917,999,15645,-.93062E-3,-.25764E-3,0
STARLINK-30499,2023-147F,2026-07-17T07:08:05.340192,15.27572793,.0001219,43.0025,168.2652,266.5810,93.4902,0,U,57918,999,15815,-.78105E-5,-.477E-5,0
STARLINK-30496,2023-147G,2026-07-17T17:09:34.426656,15.27577934,.0001364,43.0030,310.9008,258.6094,101.4605,0,U,57919,999,15651,.41845E-4,.889E-5,0
STARLINK-30485,2023-147H,2026-07-17T17:15:07.757856,15.27581296,.0001626,43.0020,310.9309,260.6179,99.4488,0,U,57920,999,15651,.27256E-4,.488E-5,0
STARLINK-30492,2023-147J,2026-07-17T09:33:35.843328,15.27585157,.000124,43.0040,312.8260,240.7042,119.3686,0,U,57921,999,15643,-.73636E-4,-.2288E-4,0
STARLINK-30440,2023-147L,2026-07-17T16:17:58.591968,15.27576922,.0001833,43.0044,311.4844,281.6784,78.3862,0,U,57923,999,15650,.52193E-5,-.119E-5,0
STARLINK-30487,2023-147M,2026-07-17T15:55:03.276768,15.27587473,.0001572,43.0031,314.7554,272.7817,87.2855,0,U,57924,999,15646,-.45412E-4,-.1512E-4,0
STARLINK-30452,2023-147N,2026-07-17T16:21:40.798080,15.27576954,.0001194,43.0021,311.5039,271.4636,88.6079,0,U,57925,999,15647,-.1928E-4,-.792E-5,0
STARLINK-30468,2023-147P,2026-07-17T16:54:03.856320,15.27576059,.0001417,43.0041,314.2294,279.6639,80.4053,0,U,57926,999,15644,-.13185E-5,-.298E-5,0
STARLINK-30448,2023-147R,2026-07-17T17:14:24.619200,15.27580499,.0002122,43.0050,314.3261,268.2687,91.7921,0,U,57928,999,15644,.26506E-4,.467E-5,0
STARLINK-30476,2023-147T,2026-07-17T16:00:03.000096,15.93972862,.0006337,42.9859,218.4682,169.1624,201.8921,0,U,57930,999,592,.63512E-3,.240672E-2,.30311E-4
STARLINK-30488,2023-147U,2026-07-17T17:19:58.099008,15.27575570,.0001397,43.0041,314.3516,260.5987,99.4707,0,U,57931,999,15647,.84336E-5,-.3E-6,0
STARLINK-30471,2023-147V,2026-07-17T08:41:47.072832,15.27574442,.0000991,43.0012,312.5504,213.1929,146.8861,0,U,57932,999,15643,-.12413E-4,-.603E-5,0
STARLINK-30461,2023-147W,2026-07-17T14:52:51.705696,15.27576555,.0001607,43.0050,311.0504,276.3670,83.6999,0,U,57933,999,15647,.13279E-4,.103E-5,0
STARLINK-30712,2023-148A,2026-07-17T05:33:02.769120,15.34390906,.0001475,53.1603,140.6188,89.9917,270.1255,0,U,57935,999,15828,.23513E-4,.418E-5,0
STARLINK-30716,2023-148B,2026-07-17T13:33:19.069056,15.30202695,.0000609,53.1599,141.1692,103.4068,256.7001,0,U,57936,999,15830,.13446E-3,.3626E-4,0
STARLINK-30400,2023-148C,2026-07-17T06:21:30.682080,15.34395302,.0001552,53.1604,140.7767,116.5934,243.5228,0,U,57937,999,15828,.25085E-4,.471E-5,0
STARLINK-30710,2023-148D,2026-07-17T12:54:38.721888,15.34386252,.0001557,53.1595,129.0879,103.1212,256.9965,0,U,57938,999,15846,-.18267E-5,-.438E-5,0
STARLINK-30714,2023-148E,2026-07-17T02:20:34.960704,15.32122737,.0002072,53.1594,143.2196,82.7117,277.4120,0,U,57939,999,15823,.94178E-3,.29364E-3,0
STARLINK-30711,2023-148F,2026-07-17T16:00:03.000096,15.34355597,.0001496,53.1603,140.6436,86.8011,145.1909,0,U,57940,999,587,.1322E-2,.44491E-3,0
STARLINK-30715,2023-148G,2026-07-17T01:26:43.059840,15.30196729,.0001832,53.1590,133.0719,99.0272,261.0936,0,U,57941,999,15837,-.36992E-4,-.1455E-4,0
STARLINK-30455,2023-148H,2026-07-17T00:42:21.476736,15.33543830,.0001335,53.1601,143.4706,86.8588,273.2567,0,U,57942,999,15822,-.10588E-4,-.721E-5,0
STARLINK-30456,2023-148J,2026-07-17T02:30:25.643808,15.30189809,.0001425,53.1607,143.3499,104.5563,255.5596,0,U,57943,999,15823,.59513E-5,-.183E-5,0
STARLINK-30708,2023-148K,2026-07-17T06:03:20.277792,15.34393747,.0001313,53.1590,140.7290,78.5511,281.5639,0,U,57944,999,15828,.64536E-6,-.354E-5,0
STARLINK-30705,2023-148L,2026-07-17T06:06:22.184352,15.34393989,.0001458,53.1597,140.7481,94.7806,265.3363,0,U,57945,999,15828,.76695E-5,-.117E-5,0
STARLINK-30704,2023-148M,2026-07-17T01:35:32.252064,15.34390204,.00012337,53.1595,219.2539,92.3159,267.7985,0,U,57946,999,15714,.10015198E-4,-.38E-6,0
STARLINK-30706,2023-148N,2026-07-17T13:15:58.056192,15.34386526,.0001691,53.1609,139.0436,104.0738,256.0452,0,U,57947,999,15833,-.25012E-5,-.461E-5,0
STARLINK-30707,2023-148Q,2026-07-17T02:40:35.398848,15.34413845,.0001713,53.1599,141.2716,109.5822,250.5366,0,U,57949,999,15826,-.1341E-3,-.4907E-4,0
STARLINK-30701,2023-148R,2026-07-17T12:57:54.590688,15.34393300,.0001811,53.1603,139.6641,91.1749,268.9461,0,U,57950,999,15832,.96477E-5,-.51E-6,0
STARLINK-30399,2023-148S,2026-07-17T02:28:29.144640,15.34363315,.0001588,53.1607,141.2047,86.0369,274.0815,0,U,57951,999,15826,.1522E-3,.4763E-4,0
STARLINK-30713,2023-148T,2026-07-17T01:37:06.206016,15.34394994,.000143,53.1606,141.7117,92.4369,267.6797,0,U,57952,999,15825,.16627E-4,.185E-5,0
STARLINK-30700,2023-148U,2026-07-17T16:00:03.000096,15.33495999,.0001043,53.1593,130.4589,78.6846,121.1967,0,U,57953,999,577,.1438E-2,.47137E-3,0
STARLINK-30703,2023-148V,2026-07-17T05:35:55.297824,15.34396701,.0001318,53.1595,130.5370,93.5792,266.5361,0,U,57954,999,15842,.25105E-4,.472E-5,0
STARLINK-30702,2023-148W,2026-07-17T05:08:46.957632,15.34394864,.000153,53.1592,131.1203,99.2881,260.8295,0,U,57955,999,15841,-.12888E-4,-.812E-5,0
STARLINK-30396,2023-151A,2026-07-17T16:23:21.288192,15.27577599,.0001913,43.0039,322.1815,263.3914,96.6720,0,U,57964,999,15564,-.42586E-5,-.38E-5,0
STARLINK-30524,2023-151B,2026-07-17T14:39:57.186720,15.27573527,.0001692,43.0045,322.5068,266.9145,93.1514,0,U,57965,999,15563,.66452E-5,-.79E-6,0
STARLINK-30521,2023-151C,2026-07-17T15:25:59.667744,15.27575882,.0001494,43.0040,321.8830,268.8462,91.2219,0,U,57966,999,15564,.95932E-5,.2E-7,0
STARLINK-30528,2023-151D,2026-07-17T15:31:35.762880,15.27550317,.0002288,43.0054,321.9116,284.1478,75.9120,0,U,57967,999,15564,-.19571E-3,-.5639E-4,0
STARLINK-30495,2023-151E,2026-07-17T15:51:53.669376,15.27578769,.0001076,43.0027,322.0121,252.9955,107.0779,0,U,57968,999,15564,.18282E-6,-.257E-5,0
STARLINK-30494,2023-151G,2026-07-17T08:16:08.292288,15.27576323,.0001668,43.0024,178.3300,271.3037,88.7623,0,U,57970,999,15728,.13564E-4,.111E-5,0
STARLINK-30498,2023-151H,2026-07-17T15:46:20.633664,15.27575914,.0001638,43.0050,321.9729,273.2953,86.7711,0,U,57971,999,15564,.55147E-5,-.111E-5,0
STARLINK-30505,2023-151J,2026-07-17T16:19:38.925696,15.27585894,.0001625,43.0019,322.1415,271.9094,88.1572,0,U,57972,999,15564,.28608E-3,.762E-4,0
STARLINK-30502,2023-151K,2026-07-17T17:14:57.230016,15.27572205,.0000979,43.0026,321.5771,273.1843,86.8896,0,U,57973,999,15565,-.42071E-5,-.378E-5,0
STARLINK-30489,2023-151L,2026-07-17T17:22:21.135072,15.27573680,.0001606,43.0062,321.6184,266.9628,93.1040,0,U,57974,999,15565,.55439E-5,-.11E-5,0
STARLINK-30503,2023-151M,2026-07-17T16:28:54.532128,15.27562252,.000171,43.0016,322.1711,176.1828,183.9037,0,U,57975,999,15564,-.15783E-4,-.696E-5,0
STARLINK-30512,2023-151N,2026-07-17T17:11:14.407872,15.27571904,.0001056,43.0026,321.5058,275.8034,84.2697,0,U,57976,999,15565,-.61911E-5,-.432E-5,0
STARLINK-30509,2023-151P,2026-07-17T10:00:23.247936,15.27571251,.0001758,43.0066,338.0449,265.5953,94.4698,0,U,57977,999,15543,.72875E-5,-.62E-6,0
STARLINK-30511,2023-151Q,2026-07-17T10:09:38.052576,15.27569427,.0001294,43.0046,338.0905,266.6604,93.4100,0,U,57978,999,15543,.60911E-4,.1414E-4,0
STARLINK-30508,2023-151R,2026-07-17T10:15:10.861056,15.27579690,.0001083,43.0026,338.1111,244.1559,115.9182,0,U,57979,999,15543,.52214E-4,.1175E-4,0
STARLINK-30510,2023-151T,2026-07-17T11:17:10.882176,15.27576098,.0001219,43.0053,340.9861,254.0238,106.0480,0,U,57981,999,15540,-.5706E-4,-.1832E-4,0
STARLINK-30507,2023-151U,2026-07-17T09:48:34.239168,15.27557784,.0002096,43.0031,341.3852,275.3920,84.6693,0,U,57982,999,15538,-.19255E-3,-.5554E-4,0
